{
  "type": "FeatureCollection",
  "features": [
    {
      "type": "Feature",
      "properties": {
        "norad_id": 30022,
        "name": "FENGYUN 1C DEB",
        "group": "fengyun-1c-debris",
        "lat": -47.52984768788928,
        "lon": -145.86246651421084,
        "alt_km": 803.7987222745351,
        "timestamp": "2025-12-21T16:47:55.011491+00:00",
        "meta_object_name": "FENGYUN 1C DEB",
        "meta_object_id": "1999-025MX",
        "meta_epoch": "2025-12-21T12:16:04.058976",
        "meta_mean_motion": 14.2313544,
        "meta_eccentricity": 0.0066627,
        "meta_inclination": 99.0716,
        "meta_ra_of_asc_node": 203.8913,
        "meta_arg_of_pericenter": 243.6535,
        "meta_mean_anomaly": 180.7363,
        "meta_ephemeris_type": 0,
        "meta_classification_type": "U",
        "meta_norad_cat_id": 30022,
        "meta_element_set_no": 999,
        "meta_rev_at_epoch": 98317,
        "meta_bstar": 6.1783e-05,
        "meta_mean_motion_dot": 9.5e-07,
        "meta_mean_motion_ddot": 0,
        "tle_line1": "1 30022U 99025MX  25355.51115809  .00000095  00000+0  61783-4 0  9994",
        "tle_line2": "2 30022  99.0716 203.8913 0066627 243.6535 180.7363 14.23135440983175"
      },
      "geometry": {
        "type": "Point",
        "coordinates": [
          -145.86246651421084,
          -47.52984768788928
        ]
      }
    },
    {
      "type": "Feature",
      "properties": {
        "norad_id": 30023,
        "name": "FENGYUN 1C DEB",
        "group": "fengyun-1c-debris",
        "lat": -57.017891556494426,
        "lon": -5.030724122413504,
        "alt_km": 892.0847080599133,
        "timestamp": "2025-12-21T16:47:55.011500+00:00",
        "meta_object_name": "FENGYUN 1C DEB",
        "meta_object_id": "1999-025MY",
        "meta_epoch": "2025-12-21T12:31:39.903168",
        "meta_mean_motion": 14.1187502,
        "meta_eccentricity": 0.0047062,
        "meta_inclination": 99.2936,
        "meta_ra_of_asc_node": 189.3997,
        "meta_arg_of_pericenter": 39.3064,
        "meta_mean_anomaly": 15.0269,
        "meta_ephemeris_type": 0,
        "meta_classification_type": "U",
        "meta_norad_cat_id": 30023,
        "meta_element_set_no": 999,
        "meta_rev_at_epoch": 97320,
        "meta_bstar": 0.00031515,
        "meta_mean_motion_dot": 5.34e-06,
        "meta_mean_motion_ddot": 0,
        "tle_line1": "1 30023U 99025MY  25355.52198962  .00000534  00000+0  31515-3 0  9994",
        "tle_line2": "2 30023  99.2936 189.3997 0047062  39.3064  15.0269 14.11875020973201"
      },
      "geometry": {
        "type": "Point",
        "coordinates": [
          -5.030724122413504,
          -57.017891556494426
        ]
      }
    },
    {
      "type": "Feature",
      "properties": {
        "norad_id": 30028,
        "name": "FENGYUN 1C DEB",
        "group": "fengyun-1c-debris",
        "lat": 60.695429951006645,
        "lon": -177.50656058032632,
        "alt_km": 682.9549439099201,
        "timestamp": "2025-12-21T16:47:55.011510+00:00",
        "meta_object_name": "FENGYUN 1C DEB",
        "meta_object_id": "1999-025ND",
        "meta_epoch": "2025-12-20T22:14:14.159328",
        "meta_mean_motion": 14.5551515,
        "meta_eccentricity": 0.0174559,
        "meta_inclination": 98.1458,
        "meta_ra_of_asc_node": 346.954,
        "meta_arg_of_pericenter": 202.8267,
        "meta_mean_anomaly": 187.2935,
        "meta_ephemeris_type": 0,
        "meta_classification_type": "U",
        "meta_norad_cat_id": 30028,
        "meta_element_set_no": 999,
        "meta_rev_at_epoch": 99841,
        "meta_bstar": 0.0002114,
        "meta_mean_motion_dot": 1.076e-05,
        "meta_mean_motion_ddot": 0,
        "tle_line1": "1 30028U 99025ND  25354.92655277  .00001076  00000+0  21140-3 0  9994",
        "tle_line2": "2 30028  98.1458 346.9540 0174559 202.8267 187.2935 14.55515150998417"
      },
      "geometry": {
        "type": "Point",
        "coordinates": [
          -177.50656058032632,
          60.695429951006645
        ]
      }
    },
    {
      "type": "Feature",
      "properties": {
        "norad_id": 30035,
        "name": "FENGYUN 1C DEB",
        "group": "fengyun-1c-debris",
        "lat": 53.621855688251365,
        "lon": -101.61027311903213,
        "alt_km": 685.2286674537481,
        "timestamp": "2025-12-21T16:47:55.011520+00:00",
        "meta_object_name": "FENGYUN 1C DEB",
        "meta_object_id": "1999-025NL",
        "meta_epoch": "2025-12-20T17:25:43.123584",
        "meta_mean_motion": 14.36978463,
        "meta_eccentricity": 0.01153339,
        "meta_inclination": 99.2714,
        "meta_ra_of_asc_node": 270.1525,
        "meta_arg_of_pericenter": 38.8304,
        "meta_mean_anomaly": 20.9909,
        "meta_ephemeris_type": 0,
        "meta_classification_type": "U",
        "meta_norad_cat_id": 30035,
        "meta_element_set_no": 999,
        "meta_rev_at_epoch": 99238,
        "meta_bstar": 5.7967426e-05,
        "meta_mean_motion_dot": 1.32e-06,
        "meta_mean_motion_ddot": 0,
        "tle_line1": "1 30035U 99025NL  25354.72619356  .00000132  00000+0  57967-4 0  9997",
        "tle_line2": "2 30035  99.2714 270.1525 0115333  38.8304  20.9909 14.36978463992380"
      },
      "geometry": {
        "type": "Point",
        "coordinates": [
          -101.61027311903213,
          53.621855688251365
        ]
      }
    },
    {
      "type": "Feature",
      "properties": {
        "norad_id": 30036,
        "name": "FENGYUN 1C DEB",
        "group": "fengyun-1c-debris",
        "lat": 76.82348452534319,
        "lon": -15.742536647819893,
        "alt_km": 753.2164381077182,
        "timestamp": "2025-12-21T16:47:55.011531+00:00",
        "meta_object_name": "FENGYUN 1C DEB",
        "meta_object_id": "1999-025NM",
        "meta_epoch": "2025-12-21T01:45:22.133376",
        "meta_mean_motion": 14.46206951,
        "meta_eccentricity": 0.01903734,
        "meta_inclination": 98.2519,
        "meta_ra_of_asc_node": 21.9538,
        "meta_arg_of_pericenter": 182.2161,
        "meta_mean_anomaly": 238.3791,
        "meta_ephemeris_type": 0,
        "meta_classification_type": "U",
        "meta_norad_cat_id": 30036,
        "meta_element_set_no": 999,
        "meta_rev_at_epoch": 99297,
        "meta_bstar": 0.00026480639,
        "meta_mean_motion_dot": 1.135e-05,
        "meta_mean_motion_ddot": 0,
        "tle_line1": "1 30036U 99025NM  25355.07317284  .00001135  00000+0  26481-3 0  9992",
        "tle_line2": "2 30036  98.2519  21.9538 0190373 182.2161 238.3791 14.46206951992977"
      },
      "geometry": {
        "type": "Point",
        "coordinates": [
          -15.742536647819893,
          76.82348452534319
        ]
      }
    },
    {
      "type": "Feature",
      "properties": {
        "norad_id": 30037,
        "name": "FENGYUN 1C DEB",
        "group": "fengyun-1c-debris",
        "lat": 81.56313168802666,
        "lon": -112.741029033604,
        "alt_km": 707.64904630826,
        "timestamp": "2025-12-21T16:47:55.011541+00:00",
        "meta_object_name": "FENGYUN 1C DEB",
        "meta_object_id": "1999-025NN",
        "meta_epoch": "2025-12-21T04:46:16.980960",
        "meta_mean_motion": 14.34129234,
        "meta_eccentricity": 0.0174057,
        "meta_inclination": 98.3843,
        "meta_ra_of_asc_node": 330.6636,
        "meta_arg_of_pericenter": 30.0295,
        "meta_mean_anomaly": 351.5527,
        "meta_ephemeris_type": 0,
        "meta_classification_type": "U",
        "meta_norad_cat_id": 30037,
        "meta_element_set_no": 999,
        "meta_rev_at_epoch": 98909,
        "meta_bstar": 0.00016165373,
        "meta_mean_motion_dot": 4.89e-06,
        "meta_mean_motion_ddot": 0,
        "tle_line1": "1 30037U 99025NN  25355.19880765  .00000489  00000+0  16165-3 0  9994",
        "tle_line2": "2 30037  98.3843 330.6636 0174057  30.0295 351.5527 14.34129234989096"
      },
      "geometry": {
        "type": "Point",
        "coordinates": [
          -112.741029033604,
          81.56313168802666
        ]
      }
    },
    {
      "type": "Feature",
      "properties": {
        "norad_id": 30038,
        "name": "FENGYUN 1C DEB",
        "group": "fengyun-1c-debris",
        "lat": -73.95563708582388,
        "lon": 13.914020045251672,
        "alt_km": 930.0027011954062,
        "timestamp": "2025-12-21T16:47:55.011551+00:00",
        "meta_object_name": "FENGYUN 1C DEB",
        "meta_object_id": "1999-025NP",
        "meta_epoch": "2025-12-21T12:43:20.697024",
        "meta_mean_motion": 14.39312634,
        "meta_eccentricity": 0.0258011,
        "meta_inclination": 98.369,
        "meta_ra_of_asc_node": 342.9585,
        "meta_arg_of_pericenter": 76.489,
        "meta_mean_anomaly": 49.1506,
        "meta_ephemeris_type": 0,
        "meta_classification_type": "U",
        "meta_norad_cat_id": 30038,
        "meta_element_set_no": 999,
        "meta_rev_at_epoch": 99017,
        "meta_bstar": 0.00020778,
        "meta_mean_motion_dot": 9.03e-06,
        "meta_mean_motion_ddot": 0,
        "tle_line1": "1 30038U 99025NP  25355.53010066  .00000903  00000+0  20778-3 0  9998",
        "tle_line2": "2 30038  98.3690 342.9585 0258011  76.4890  49.1506 14.39312634990175"
      },
      "geometry": {
        "type": "Point",
        "coordinates": [
          13.914020045251672,
          -73.95563708582388
        ]
      }
    }
  ]
}